IRIDIUM 57              
1 25273U 98019B   24254.75704107  .00001441  00000+0  49572-3 0  9993
2 25273  86.3898 262.2617 0002207  90.7787 269.3662 14.35386425384693
IRIDIUM 63              
1 25286U 98021B   24254.81712872  .00002137  00000+0  72950-3 0  9994
2 25286  86.4038 199.1709 0002621  87.6486 272.5011 14.35979615383743
IRIDIUM 69              
1 25319U 98026A   24254.91111012  .00002583  00000+0  81077-3 0  9991
2 25319  86.4004 213.2456 0001772 150.2535 209.8765 14.40231976382855
IRIDIUM 71              
1 25320U 98026B   24254.89278991  .00002378  00000+0  74125-3 0  9998
2 25320  86.4013 208.0010 0000879  30.6493 329.4758 14.40543559383378
IRIDIUM 73              
1 25344U 98032C   24254.83292941  .00002698  00000+0  67965-3 0  9995
2 25344  86.4485 165.3696 0002102  97.6155 262.5289 14.50857778390041
IRIDIUM 82              
1 25467U 98051A   24254.71156253  .00031018  00000+0  14310-2 0  9997
2 25467  86.3711 245.0634 0115277 264.5034  94.3049 15.14263367381417
